STARLINK-1951
1 17553C 21009F   21326.12157485  .00541272  00000-0  34742-1 0  3269
2 17553  53.0542 213.1880 0005491 336.0507 135.9498 15.07429111    12
